"MEAN_MOTION","ECCENTRICITY","INCLINATION","RA_OF_ASC_NODE","ARG_OF_PERICENTER","MEAN_ANOMALY","SEMIMAJOR_AXIS","PERIOD","APOAPSIS","PERIAPSIS","OBJECT_AGE","ENCODED_SIZE","CENT_FOCUS_DIST","ENCODED_COUNTRY","ENCODED_OBJECT_TYPE"
15.19766055,0.0036655,60.694,122.9764,39.6051,62.4884,6884.684,94.751,531.785,481.313,3,1,25.235809202,75,2
14.17534567,0.0022585,98.8353,21.5694,332.4297,27.5678,7211.84,101.585,849.993,817.417,24,1,16.28794064,75,1
13.79437497,0.0207629,99.0646,67.3805,118.3135,243.9135,7344.02,104.39,1118.368,813.401,26,1,152.483152858,14,1
14.83416402,0.0004541,97.9028,353.123,347.4501,12.6599,6996.698,97.073,621.74,615.386,30,1,3.1772005618,14,1
14.01925692,0.0076594,99.1769,341.5431,109.9591,307.8763,7265.271,102.716,942.784,831.489,25,1,55.6476166974,53,1
15.02227535,0.0011778,97.7014,240.3124,55.4209,304.8149,6938.166,95.858,568.203,551.859,4,1,8.1717719148,23,2
14.58173303,0.0007725,74.0001,304.0481,247.0888,179.5311,7077.215,98.754,704.548,693.613,31,1,5.4671485875,14,1
14.07169948,0.0230016,100.5456,295.3113,86.0344,276.7078,7247.209,102.333,1035.772,702.377,11,1,166.6974025344,53,1
14.30142913,0.005064,98.7349,17.6004,197.0559,286.1862,7169.39,100.689,827.561,754.949,25,1,36.30579096,53,1
14.83418321,0.0003124,97.8967,347.5663,31.3493,328.7906,6996.692,97.073,620.743,616.371,30,1,2.1857665808,14,1
13.7201855,0.0189852,99.6642,338.2039,166.6696,193.9567,7370.47,104.955,1132.265,852.405,25,1,139.929847044,53,1
13.22688945,0.0136739,99.7157,182.9813,163.509,320.3791,7552.604,108.869,1277.742,1071.195,49,1,103.2735518356,75,1
13.99514091,0.0109498,70.8945,260.5967,225.248,311.0035,7273.615,102.893,975.125,815.836,32,1,79.644629527,14,1
14.52243305,0.0016111,74.0326,41.271,107.2187,315.5844,7096.468,99.157,729.766,706.9,31,1,11.4331195948,14,1
14.10147997,0.0012405,98.8512,336.5901,91.3277,268.9315,7237.002,102.117,867.845,849.89,25,1,8.977500981,53,1
14.45454542,0.0044025,74.042,18.8735,163.6215,196.6378,7118.67,99.623,771.875,709.195,31,1,31.339944675,14,1
14.44307092,0.0037486,74.0125,87.5131,199.9794,223.6475,7122.44,99.702,771.004,717.606,31,1,26.699178584,14,1
14.05713052,0.0013511,82.5423,234.6324,180.2929,179.8238,7252.216,102.439,883.879,864.282,42,1,9.7984690376,14,1
15.06016694,0.016274,101.7199,285.9125,46.9253,314.545,6926.524,95.616,661.111,435.666,13,1,112.722251576,75,2
14.33493258,0.0024137,65.0083,287.7254,269.9116,89.9203,7158.215,100.454,797.358,762.802,37,1,17.2777835455,14,1
14.20494843,0.0025515,81.2126,264.7407,129.0343,231.311,7201.817,101.373,842.057,805.306,11,1,18.3754360755,14,1
13.7567742,0.0244738,98.8299,45.7311,65.1451,357.2353,7357.395,104.676,1159.324,799.197,16,1,180.063413751,53,1
13.08576615,0.0051901,82.5387,258.3042,124.8609,235.7404,7606.807,110.043,1268.152,1189.192,33,1,39.4800890107,14,1
13.95650684,0.0092601,98.9033,326.1388,120.1835,240.854,7287.032,103.178,976.376,841.419,24,1,67.4786450232,75,1
14.42320562,0.0017481,74.0477,76.3961,215.742,206.8758,7128.979,99.839,763.306,738.381,31,1,12.4621681899,14,1
14.40399753,0.0113076,98.9862,146.7884,329.9024,29.5696,7135.315,99.972,837.863,676.497,25,1,80.683287894,53,1
13.68691511,0.0199052,82.7493,75.0631,316.486,221.3683,7382.409,105.21,1151.223,857.326,43,1,146.9483276268,14,1
14.12402852,0.0015844,98.8146,16.6348,356.2391,3.8659,7229.298,101.954,862.617,839.709,24,1,11.4540997512,75,1
14.42702876,0.0126861,99.0399,274.3618,238.1431,120.7359,7127.719,99.813,840.007,659.161,25,1,90.4229560059,53,1
14.34649423,0.0245574,98.4075,340.8399,340.3844,18.8018,7154.369,100.373,951.926,600.541,25,1,175.6927012806,53,1
14.32695589,0.0010625,98.5394,253.6099,159.0885,201.0736,7160.872,100.51,790.345,775.128,22,1,7.6084265,36,2
13.83044127,0.0050653,82.9404,43.5095,189.8545,231.9469,7331.246,104.118,990.246,915.976,43,1,37.1349603638,14,1
15.22333665,0.0009835,97.4357,7.2156,301.7072,58.3204,6876.941,94.592,505.569,492.042,5,1,6.7634714735,75,2
14.29277761,0.0148263,98.6202,272.4452,309.87,100.7246,7172.283,100.75,900.486,687.81,15,1,106.3384194429,53,1
13.59948933,0.0048557,99.7712,208.1187,25.2221,95.5619,7414.015,105.886,1071.88,999.879,49,1,36.0002326355,75,1
13.92695688,0.0014133,82.5185,193.1633,3.4914,7.9038,7297.336,103.397,929.515,908.888,36,1,10.3133249688,14,1
14.49519407,0.0008791,86.3801,311.7387,203.8967,156.183,7105.356,99.343,733.467,720.974,27,1,6.2463184596,75,1
14.15128561,0.0220497,99.2101,199.7142,39.4997,322.2016,7220.012,101.758,1001.076,682.678,25,1,159.1990985964,53,1
14.06961546,0.0067727,99.0984,269.096,257.1729,115.5543,7247.925,102.348,918.878,820.702,25,1,49.0880216475,53,1
13.60773408,0.0416534,98.2064,173.1888,98.2992,73.1289,7411.02,105.822,1341.579,724.19,25,1,308.694180468,53,1
15.31165708,0.0005595,97.309,11.2483,350.849,9.2649,6850.47,94.046,476.168,468.502,7,1,3.832837965,75,2
14.08955147,0.0049555,98.8685,274.4203,152.8802,207.4972,7241.086,102.203,898.835,827.068,29,1,35.883201673,75,1
14.83639302,0.0008478,97.9028,352.5562,193.7101,166.3883,6995.997,97.059,623.793,611.931,30,1,5.9312062566,14,1
14.80155977,0.0183442,98.7771,75.496,3.2335,7.7986,7006.969,97.287,757.371,500.297,25,1,128.5372407298,53,1
6.51848021,0.4511509,28.4842,230.9459,146.5659,252.5158,12105.171,220.91,11188.295,265.777,25,1,5461.2587913039,75,1
14.98268308,0.0008631,97.6692,327.1119,30.9172,329.2557,6950.384,96.111,578.248,566.25,20,1,5.9988764304,53,1
14.10841881,0.0154012,98.4254,341.0407,305.5602,53.1294,7234.629,102.067,967.916,745.072,25,1,111.4219681548,53,1
15.15255849,0.0022733,97.5935,269.2373,189.0988,170.9835,6898.339,95.033,535.886,504.522,5,1,15.6819940487,75,2
13.32070452,0.0079515,82.5664,242.4924,302.9579,56.3924,7517.101,108.102,1198.738,1079.194,33,1,59.7722286015,14,1
14.74481274,0.0091908,74.0493,58.2981,157.7178,215.8248,7024.935,97.661,711.365,582.236,31,1,64.564772598,14,1
14.17963836,0.0078493,98.6862,349.8175,58.0727,67.4549,7210.384,101.554,888.846,775.653,25,1,56.5964671312,53,1
14.35443397,0.0185235,98.2592,326.5075,109.6198,252.5085,7151.73,100.317,906.07,641.12,25,1,132.475070655,53,1
14.28577846,0.0029834,98.6986,334.3893,180.7337,179.3805,7174.625,100.8,817.895,775.086,29,1,21.404776225,75,1
12.95934962,0.0021828,90.2775,329.2999,287.443,72.4303,7656.196,111.117,1294.773,1261.349,59,1,16.7119446288,75,1
14.29007134,0.0258894,99.212,181.9985,206.1925,331.0985,7173.188,100.769,980.763,609.344,25,1,185.7095334072,53,1
3.09076417,0.6484625,48.7322,169.1587,129.7245,358.2302,19907.861,465.904,26439.227,620.225,16,1,12909.5013137125,14,1
14.48363704,0.003745,74.0062,97.5814,145.8164,279.8332,7109.135,99.423,757.624,704.376,31,1,26.623710575,14,1
14.48241136,0.0037621,99.1858,325.7877,158.7521,201.5241,7109.536,99.431,758.148,704.654,25,1,26.7467853856,53,1
14.49987593,0.0099221,73.9625,312.9706,155.0471,205.5535,7103.826,99.311,796.176,655.206,31,1,70.4848719546,14,1
3.08578597,0.6473009,49.0351,210.1413,70.0665,4.3373,19929.266,466.656,26451.363,650.899,16,1,12900.2318181394,14,1
14.28183824,0.0023105,98.7985,298.5585,211.9732,148.0048,7175.945,100.827,814.39,781.23,46,1,16.5800209225,75,1
14.76617732,0.0114682,97.8912,22.7526,271.8312,86.9767,7018.158,97.52,720.508,559.537,25,1,80.4856395756,53,1
13.92311791,0.0144055,98.5437,302.4523,33.1449,89.1284,7298.677,103.425,1025.684,815.401,25,1,105.1410915235,53,1
12.9647866,0.0021919,90.2911,322.1427,131.7815,228.5183,7654.055,111.07,1292.697,1259.143,59,1,16.7769231545,75,1
12.95406107,0.0034152,90.2694,331.5871,265.3132,94.4087,7658.28,111.162,1306.299,1253.99,59,1,26.154557856,75,1
14.41735412,0.0072515,98.5987,253.2133,52.8303,307.9478,7130.907,99.88,804.482,701.063,22,1,51.7097721105,75,1
14.35012963,0.0022491,74.0375,156.5645,248.3043,229.7603,7153.16,100.348,791.113,758.937,31,1,16.088172156,14,1
1.75735143,0.7617822,26.3864,47.288,18.0209,358.2491,29006.551,819.415,44725.091,531.742,17,1,22096.6742351922,53,1
14.32787291,0.0042925,99.4558,50.6882,92.6434,267.9662,7160.566,100.503,813.168,751.694,25,1,30.736729555,53,1
14.16527815,0.0330663,98.2349,246.915,41.8255,331.4016,7215.256,101.657,1075.703,598.54,25,1,238.5818194728,53,1
14.04419141,0.0052395,98.9599,11.1651,9.8634,350.3549,7256.67,102.533,916.556,840.513,24,1,38.021322465,75,1
14.94607089,9.96e-05,97.8525,294.1353,84.1564,275.977,6961.73,96.346,584.288,582.901,23,1,0.693388308,28,1
14.42300988,0.0056717,73.9989,167.7418,256.6067,232.4912,7129.043,99.84,791.342,710.474,31,1,40.4337931831,14,1
14.17685713,0.0010423,82.8406,215.2851,189.0909,171.0083,7211.327,101.574,840.709,825.676,37,1,7.5163661321,14,1
14.18782017,0.007346,99.558,357.5978,32.449,88.0445,7207.612,101.496,882.424,776.53,25,1,52.947117752,53,1
14.07835299,0.0388159,99.1983,59.0069,222.4239,134.6317,7244.926,102.285,1148.009,585.572,25,1,281.2183231234,53,1
13.92001242,0.022467,74.0022,21.0486,167.6891,252.7748,7299.763,103.448,1085.632,757.624,31,1,164.003775321,14,1
13.84113896,0.0145391,98.873,23.5157,356.8131,125.2483,7327.468,104.038,1055.868,842.799,25,1,106.5347899988,53,1
1.82360198,0.4695805,21.4872,310.4793,228.4159,80.4825,28299.698,789.646,35210.55,8632.577,10,1,13288.986336689,75,1
13.94641654,0.0222251,73.8743,294.9358,236.6964,300.0888,7290.547,103.252,1074.445,750.378,31,1,162.0331361297,14,1
14.5294004,0.0058192,74.0145,288.1675,90.9091,269.8739,7094.199,99.109,757.347,674.782,31,1,41.2825628208,14,1
12.68028564,0.0099564,73.2373,51.3652,1.3011,358.8286,7768.118,113.562,1467.326,1312.641,37,1,77.3424900552,14,1
13.99200141,0.006778,98.8541,318.8581,14.9315,345.3831,7274.703,102.916,945.876,847.26,25,1,49.307936934,53,1
14.83130514,6.88e-05,97.9061,349.7334,276.5894,83.5241,6997.597,97.092,619.943,618.981,30,1,0.4814346736,14,1
14.83745144,0.0175638,98.1845,22.5051,103.4272,258.6584,6995.664,97.052,740.4,494.659,25,1,122.8704433632,53,1
1.84994596,0.4821648,21.4191,304.948,240.2561,63.3217,28030.39,778.401,35167.523,8136.988,10,1,13515.267388272,75,1
13.82057629,0.0164156,98.8725,263.3626,190.3263,169.4505,7334.735,104.192,1077.004,836.196,24,1,120.404075866,75,1
